[{"OBJECT_NAME":"HXMT (HUIYAN)","OBJECT_ID":"2017-034A","EPOCH":"2026-03-20T02:40:16.152384","MEAN_MOTION":15.17597517,"ECCENTRICITY":0.00329518,"INCLINATION":43.0149,"RA_OF_ASC_NODE":318.729,"ARG_OF_PERICENTER":299.3815,"MEAN_ANOMALY":60.3745,"EPHEMERIS_TYPE":0,"CLASSIFICATION_TYPE":"U","NORAD_CAT_ID":42758,"ELEMENT_SET_NO":999,"REV_AT_EPOCH":48412,"BSTAR":0.00024484725,"MEAN_MOTION_DOT":4.84e-5,"MEAN_MOTION_DDOT":0},{"OBJECT_NAME":"SAOCOM 1A","OBJECT_ID":"2018-076A","EPOCH":"2026-03-20T07:00:42.992064","MEAN_MOTION":14.82152072,"ECCENTRICITY":0.00015176,"INCLINATION":97.8891,"RA_OF_ASC_NODE":267.3149,"ARG_OF_PERICENTER":87.3379,"MEAN_ANOMALY":272.8008,"EPHEMERIS_TYPE":0,"CLASSIFICATION_TYPE":"U","NORAD_CAT_ID":43641,"ELEMENT_SET_NO":999,"REV_AT_EPOCH":40293,"BSTAR":6.6734257e-5,"MEAN_MOTION_DOT":4.79e-6,"MEAN_MOTION_DDOT":0},{"OBJECT_NAME":"H-2A R/B","OBJECT_ID":"2018-084L","EPOCH":"2026-03-20T04:23:47.959008","MEAN_MOTION":15.41759166,"ECCENTRICITY":0.00245562,"INCLINATION":98.8714,"RA_OF_ASC_NODE":298.8177,"ARG_OF_PERICENTER":349.1904,"MEAN_ANOMALY":10.8807,"EPHEMERIS_TYPE":0,"CLASSIFICATION_TYPE":"U","NORAD_CAT_ID":43682,"ELEMENT_SET_NO":999,"REV_AT_EPOCH":40739,"BSTAR":0.00029373396,"MEAN_MOTION_DOT":0.00012444,"MEAN_MOTION_DDOT":0},{"OBJECT_NAME":"SAOCOM 1B","OBJECT_ID":"2020-059A","EPOCH":"2026-03-20T06:08:26.908800","MEAN_MOTION":14.82144336,"ECCENTRICITY":0.00014511,"INCLINATION":97.8891,"RA_OF_ASC_NODE":266.3771,"ARG_OF_PERICENTER":90.1479,"MEAN_ANOMALY":269.99,"EPHEMERIS_TYPE":0,"CLASSIFICATION_TYPE":"U","NORAD_CAT_ID":46265,"ELEMENT_SET_NO":999,"REV_AT_EPOCH":30031,"BSTAR":-2.2487474e-5,"MEAN_MOTION_DOT":-2.31e-6,"MEAN_MOTION_DDOT":0},{"OBJECT_NAME":"CSS (TIANHE)","OBJECT_ID":"2021-035A","EPOCH":"2026-03-20T01:55:42.718656","MEAN_MOTION":15.61198196,"ECCENTRICITY":0.00057234,"INCLINATION":41.4665,"RA_OF_ASC_NODE":144.9122,"ARG_OF_PERICENTER":338.4006,"MEAN_ANOMALY":21.6591,"EPHEMERIS_TYPE":0,"CLASSIFICATION_TYPE":"U","NORAD_CAT_ID":48274,"ELEMENT_SET_NO":999,"REV_AT_EPOCH":27923,"BSTAR":0.00025017953,"MEAN_MOTION_DOT":0.00021521,"MEAN_MOTION_DDOT":0},{"OBJECT_NAME":"COSMOS 2550","OBJECT_ID":"2021-056A","EPOCH":"2026-03-20T08:12:10.305216","MEAN_MOTION":15.33831407,"ECCENTRICITY":0.0008198,"INCLINATION":67.1426,"RA_OF_ASC_NODE":8.6599,"ARG_OF_PERICENTER":269.4448,"MEAN_ANOMALY":90.5767,"EPHEMERIS_TYPE":0,"CLASSIFICATION_TYPE":"U","NORAD_CAT_ID":48865,"ELEMENT_SET_NO":999,"REV_AT_EPOCH":26509,"BSTAR":2.9812e-8,"MEAN_MOTION_DOT":-1.91e-6,"MEAN_MOTION_DDOT":0},{"OBJECT_NAME":"CZ-2C R/B","OBJECT_ID":"2022-058K","EPOCH":"2026-03-19T22:12:10.991808","MEAN_MOTION":15.54929442,"ECCENTRICITY":0.0041858,"INCLINATION":50.1871,"RA_OF_ASC_NODE":265.6082,"ARG_OF_PERICENTER":244.5236,"MEAN_ANOMALY":115.1402,"EPHEMERIS_TYPE":0,"CLASSIFICATION_TYPE":"U","NORAD_CAT_ID":52794,"ELEMENT_SET_NO":999,"REV_AT_EPOCH":21172,"BSTAR":0.00044923,"MEAN_MOTION_DOT":0.00031493,"MEAN_MOTION_DDOT":0},{"OBJECT_NAME":"CZ-2C R/B","OBJECT_ID":"2022-132E","EPOCH":"2026-03-20T00:05:39.424128","MEAN_MOTION":15.62761564,"ECCENTRICITY":0.00194954,"INCLINATION":97.2957,"RA_OF_ASC_NODE":82.6409,"ARG_OF_PERICENTER":58.6214,"MEAN_ANOMALY":301.6948,"EPHEMERIS_TYPE":0,"CLASSIFICATION_TYPE":"U","NORAD_CAT_ID":54039,"ELEMENT_SET_NO":999,"REV_AT_EPOCH":19198,"BSTAR":0.00042934655,"MEAN_MOTION_DOT":0.00038928,"MEAN_MOTION_DDOT":0},{"OBJECT_NAME":"GSLV R/B","OBJECT_ID":"2022-138AN","EPOCH":"2026-03-20T06:48:34.922592","MEAN_MOTION":14.96839453,"ECCENTRICITY":0.00239333,"INCLINATION":87.387,"RA_OF_ASC_NODE":162.8163,"ARG_OF_PERICENTER":111.3971,"MEAN_ANOMALY":248.9817,"EPHEMERIS_TYPE":0,"CLASSIFICATION_TYPE":"U","NORAD_CAT_ID":54149,"ELEMENT_SET_NO":999,"REV_AT_EPOCH":18551,"BSTAR":0.00017579682,"MEAN_MOTION_DOT":2.054e-5,"MEAN_MOTION_DDOT":0},{"OBJECT_NAME":"XRISM","OBJECT_ID":"2023-137A","EPOCH":"2026-03-19T19:26:18.464352","MEAN_MOTION":15.11607413,"ECCENTRICITY":0.00079282,"INCLINATION":31.0011,"RA_OF_ASC_NODE":218.1974,"ARG_OF_PERICENTER":140.8254,"MEAN_ANOMALY":219.2959,"EPHEMERIS_TYPE":0,"CLASSIFICATION_TYPE":"U","NORAD_CAT_ID":57800,"ELEMENT_SET_NO":999,"REV_AT_EPOCH":13932,"BSTAR":0.00027027066,"MEAN_MOTION_DOT":4.804e-5,"MEAN_MOTION_DDOT":0},{"OBJECT_NAME":"ACS3","OBJECT_ID":"2024-077B","EPOCH":"2026-03-19T19:01:38.997408","MEAN_MOTION":13.9006455,"ECCENTRICITY":0.006835,"INCLINATION":97.2017,"RA_OF_ASC_NODE":17.6345,"ARG_OF_PERICENTER":52.9305,"MEAN_ANOMALY":307.8082,"EPHEMERIS_TYPE":0,"CLASSIFICATION_TYPE":"U","NORAD_CAT_ID":59588,"ELEMENT_SET_NO":999,"REV_AT_EPOCH":9560,"BSTAR":0.01979,"MEAN_MOTION_DOT":0.00024936,"MEAN_MOTION_DDOT":0},{"OBJECT_NAME":"SZ-21 MODULE","OBJECT_ID":"2025-246C","EPOCH":"2026-03-20T04:39:31.036608","MEAN_MOTION":15.69318212,"ECCENTRICITY":3.768e-5,"INCLINATION":41.4734,"RA_OF_ASC_NODE":138.6579,"ARG_OF_PERICENTER":257.1443,"MEAN_ANOMALY":102.9357,"EPHEMERIS_TYPE":0,"CLASSIFICATION_TYPE":"U","NORAD_CAT_ID":66515,"ELEMENT_SET_NO":999,"REV_AT_EPOCH":1972,"BSTAR":0.00021817617,"MEAN_MOTION_DOT":0.00026007,"MEAN_MOTION_DDOT":0}]
