HXMT (HUIYAN)           
1 42758U 17034A   26079.11129806  .00004840  00000+0  24485-3 0  9994
2 42758  43.0149 318.7290 0032951 299.3815  60.3745 15.17597517484128
SAOCOM 1A               
1 43641U 18076A   26079.29216426  .00000479  00000+0  66734-4 0  9995
2 43641  97.8891 267.3149 0001517  87.3379 272.8008 14.82152072402932
H-2A R/B                
1 43682U 18084L   26079.18319397  .00012444  00000+0  29373-3 0  9990
2 43682  98.8714 298.8177 0024556 349.1904  10.8807 15.41759166407398
SAOCOM 1B               
1 46265U 20059A   26079.25586700 -.00000231  00000+0 -22487-4 0  9990
2 46265  97.8891 266.3771 0001451  90.1479 269.9900 14.82144336300318
CSS (TIANHE)            
1 48274U 21035A   26079.08035554  .00021521  00000+0  25018-3 0  9999
2 48274  41.4665 144.9122 0005723 338.4006  21.6591 15.61198196279231
COSMOS 2550             
1 48865U 21056A   26079.34178594 -.00000191  00000+0  29812-7 0  9990
2 48865  67.1426   8.6599 0008198 269.4448  90.5767 15.33831407265090
CZ-2C R/B               
1 52794U 22058K   26078.92512722  .00031493  00000+0  44923-3 0  9991
2 52794  50.1871 265.6082 0041858 244.5236 115.1402 15.54929442211724
CZ-2C R/B               
1 54039U 22132E   26079.00392852  .00038928  00000+0  42935-3 0  9999
2 54039  97.2957  82.6409 0019495  58.6214 301.6948 15.62761564191987
GSLV R/B                
1 54149U 22138AN  26079.28373753  .00002054  00000+0  17580-3 0  9995
2 54149  87.3870 162.8163 0023933 111.3971 248.9817 14.96839453185519
XRISM                   
1 57800U 23137A   26078.80993593  .00004804  00000+0  27027-3 0  9991
2 57800  31.0011 218.1974 0007928 140.8254 219.2959 15.11607413139324
ACS3                    
1 59588U 24077B   26078.79281247  .00024936  00000+0  19790-1 0  9998
2 59588  97.2017  17.6345 0068350  52.9305 307.8082 13.90064550 95606
SZ-21 MODULE            
1 66515U 25246C   26079.19410922  .00026007  00000+0  21818-3 0  9991
2 66515  41.4734 138.6579 0000376 257.1443 102.9357 15.69318212 19723
